{
  "norad_id": 68533,
  "name": "STARLINK-36252",
  "history": [
    {
      "epoch": "2026-04-07T01:13:38.190144Z",
      "apogee_km": 289.2627865231525,
      "perigee_km": 288.60274661626227,
      "latitude_deg": 1.747556329580219e-05,
      "longitude_deg": 153.4258988423655,
      "height_km": 290.1644195558785,
      "semi_major_axis_km": 6667.069766569707,
      "eccentricity": 4.95e-05,
      "inclination_deg": 53.1611,
      "raan_deg": 7.1686,
      "arg_perigee_deg": 201.7185,
      "mean_anomaly_deg": 158.3823,
      "mean_motion_rev_day": 15.94778097
    }
  ]
}