{"fetched_at":"2026-04-08T17:04:03Z","count":12288,"tles":[{"name":"STARLINK-36252","line1":"1 68533U 26068AB  26097.05113646 -.00650018  14538-3 -16441-2 0  9991","line2":"2 68533  53.1611   7.1686 0000495 201.7185 158.3823 15.94778097  1158","category":"Starlink"}]}